{
  "links" : {
    "next" : "https://api.nasa.gov/neo/rest/v1/feed?start_date=2003-09-23&end_date=2003-09-23&detailed=true&api_key=t0TVs3DtDT2H8Oy2Zy8m2eVrNsAVKAexjcZXUckd",
    "prev" : "https://api.nasa.gov/neo/rest/v1/feed?start_date=2003-09-21&end_date=2003-09-21&detailed=true&api_key=t0TVs3DtDT2H8Oy2Zy8m2eVrNsAVKAexjcZXUckd",
    "self" : "https://api.nasa.gov/neo/rest/v1/feed?start_date=2003-09-22&end_date=2003-09-22&detailed=true&api_key=t0TVs3DtDT2H8Oy2Zy8m2eVrNsAVKAexjcZXUckd"
  },
  "element_count" : 8,
  "near_earth_objects" : {
    "2003-09-22" : [ {
      "links" : {
        "self" : "https://api.nasa.gov/neo/rest/v1/neo/2369986?api_key=t0TVs3DtDT2H8Oy2Zy8m2eVrNsAVKAexjcZXUckd"
      },
      "neo_reference_id" : "2369986",
      "name" : "369986 (1998 SO)",
      "nasa_jpl_url" : "http://ssd.jpl.nasa.gov/sbdb.cgi?sstr=2369986",
      "absolute_magnitude_h" : 20.6,
      "estimated_diameter" : {
        "kilometers" : {
          "estimated_diameter_min" : 0.2016299194,
          "estimated_diameter_max" : 0.4508582062
        },
        "meters" : {
          "estimated_diameter_min" : 201.6299194428,
          "estimated_diameter_max" : 450.8582061718
        },
        "miles" : {
          "estimated_diameter_min" : 0.1252869847,
          "estimated_diameter_max" : 0.2801502144
        },
        "feet" : {
          "estimated_diameter_min" : 661.5155049046,
          "estimated_diameter_max" : 1479.1936371367
        }
      },
      "is_potentially_hazardous_asteroid" : false,
      "close_approach_data" : [ {
        "close_approach_date" : "2003-09-22",
        "epoch_date_close_approach" : 1064214000000,
        "relative_velocity" : {
          "kilometers_per_second" : "18.5546298258",
          "kilometers_per_hour" : "66796.667372826",
          "miles_per_hour" : "41504.8514572985"
        },
        "miss_distance" : {
          "astronomical" : "0.2361368782",
          "lunar" : "91.8572463989",
          "kilometers" : "35325576",
          "miles" : "21950294"
        },
        "orbiting_body" : "Earth"
      } ],
      "orbital_data" : {
        "orbit_id" : "31",
        "orbit_determination_date" : "2017-04-06 09:22:32",
        "orbit_uncertainty" : "0",
        "minimum_orbit_intersection" : ".198787",
        "jupiter_tisserand_invariant" : "7.576",
        "epoch_osculation" : "2458000.5",
        "eccentricity" : ".6985957132571475",
        "semi_major_axis" : ".7315079080521292",
        "inclination" : "30.34471532020354",
        "ascending_node_longitude" : "176.1496741794256",
        "orbital_period" : "228.5214468595822",
        "perihelion_distance" : ".2204796192732081",
        "perihelion_argument" : "359.8568383897207",
        "aphelion_distance" : "1.24253619683105",
        "perihelion_time" : "2458037.650067830598",
        "mean_anomaly" : "301.4758456906104",
        "mean_motion" : "1.575344480560752",
        "equinox" : "J2000"
      }
    }, {
      "links" : {
        "self" : "https://api.nasa.gov/neo/rest/v1/neo/2418198?api_key=t0TVs3DtDT2H8Oy2Zy8m2eVrNsAVKAexjcZXUckd"
      },
      "neo_reference_id" : "2418198",
      "name" : "418198 (2008 CN70)",
      "nasa_jpl_url" : "http://ssd.jpl.nasa.gov/sbdb.cgi?sstr=2418198",
      "absolute_magnitude_h" : 19.0,
      "estimated_diameter" : {
        "kilometers" : {
          "estimated_diameter_min" : 0.4212646106,
          "estimated_diameter_max" : 0.9419763057
        },
        "meters" : {
          "estimated_diameter_min" : 421.2646105562,
          "estimated_diameter_max" : 941.9763057186
        },
        "miles" : {
          "estimated_diameter_min" : 0.2617616123,
          "estimated_diameter_max" : 0.5853167591
        },
        "feet" : {
          "estimated_diameter_min" : 1382.1017848971,
          "estimated_diameter_max" : 3090.4735428537
        }
      },
      "is_potentially_hazardous_asteroid" : false,
      "close_approach_data" : [ {
        "close_approach_date" : "2003-09-22",
        "epoch_date_close_approach" : 1064214000000,
        "relative_velocity" : {
          "kilometers_per_second" : "17.5229220681",
          "kilometers_per_hour" : "63082.5194453306",
          "miles_per_hour" : "39197.0243742389"
        },
        "miss_distance" : {
          "astronomical" : "0.3063954725",
          "lunar" : "119.1878356934",
          "kilometers" : "45836112",
          "miles" : "28481238"
        },
        "orbiting_body" : "Earth"
      } ],
      "orbital_data" : {
        "orbit_id" : "27",
        "orbit_determination_date" : "2017-04-06 09:21:15",
        "orbit_uncertainty" : "1",
        "minimum_orbit_intersection" : ".089119",
        "jupiter_tisserand_invariant" : "6.790",
        "epoch_osculation" : "2458000.5",
        "eccentricity" : ".3796180454982264",
        "semi_major_axis" : ".8518399107691234",
        "inclination" : "24.45381292450054",
        "ascending_node_longitude" : "150.7160727104503",
        "orbital_period" : "287.1675763522205",
        "perihelion_distance" : ".5284661087655652",
        "perihelion_argument" : "114.3228501887263",
        "aphelion_distance" : "1.175213712772681",
        "perihelion_time" : "2458030.389950124187",
        "mean_anomaly" : "322.5292584163147",
        "mean_motion" : "1.253623422856236",
        "equinox" : "J2000"
      }
    }, {
      "links" : {
        "self" : "https://api.nasa.gov/neo/rest/v1/neo/2459462?api_key=t0TVs3DtDT2H8Oy2Zy8m2eVrNsAVKAexjcZXUckd"
      },
      "neo_reference_id" : "2459462",
      "name" : "459462 (2013 AY52)",
      "nasa_jpl_url" : "http://ssd.jpl.nasa.gov/sbdb.cgi?sstr=2459462",
      "absolute_magnitude_h" : 20.0,
      "estimated_diameter" : {
        "kilometers" : {
          "estimated_diameter_min" : 0.2658,
          "estimated_diameter_max" : 0.5943468684
        },
        "meters" : {
          "estimated_diameter_min" : 265.8,
          "estimated_diameter_max" : 594.3468684194
        },
        "miles" : {
          "estimated_diameter_min" : 0.1651604118,
          "estimated_diameter_max" : 0.369309908
        },
        "feet" : {
          "estimated_diameter_min" : 872.047272,
          "estimated_diameter_max" : 1949.9569797852
        }
      },
      "is_potentially_hazardous_asteroid" : false,
      "close_approach_data" : [ {
        "close_approach_date" : "2003-09-22",
        "epoch_date_close_approach" : 1064214000000,
        "relative_velocity" : {
          "kilometers_per_second" : "14.551833709",
          "kilometers_per_hour" : "52386.601352549",
          "miles_per_hour" : "32550.9968237547"
        },
        "miss_distance" : {
          "astronomical" : "0.3919617914",
          "lunar" : "152.4731292725",
          "kilometers" : "58636648",
          "miles" : "36435124"
        },
        "orbiting_body" : "Earth"
      } ],
      "orbital_data" : {
        "orbit_id" : "55",
        "orbit_determination_date" : "2017-04-06 09:19:42",
        "orbit_uncertainty" : "0",
        "minimum_orbit_intersection" : ".0807848",
        "jupiter_tisserand_invariant" : "4.799",
        "epoch_osculation" : "2458000.5",
        "eccentricity" : ".4746876747199205",
        "semi_major_axis" : "1.314375527495198",
        "inclination" : "18.34785379410367",
        "ascending_node_longitude" : "116.3866871754969",
        "orbital_period" : "550.398983756292",
        "perihelion_distance" : ".6904576646397335",
        "perihelion_argument" : "251.7817482034049",
        "aphelion_distance" : "1.938293390350662",
        "perihelion_time" : "2457866.918401974633",
        "mean_anomaly" : "87.37184607598292",
        "mean_motion" : ".6540709751008595",
        "equinox" : "J2000"
      }
    } ]
  }
}